[{"OBJECT_NAME":"FORMOSAT 7-1","OBJECT_ID":"2019-036L","EPOCH":"2026-03-09T01:58:31.546848","MEAN_MOTION":14.96019979,"ECCENTRICITY":0.00010479,"INCLINATION":23.9993,"RA_OF_ASC_NODE":347.0403,"ARG_OF_PERICENTER":84.2943,"MEAN_ANOMALY":275.7677,"EPHEMERIS_TYPE":0,"CLASSIFICATION_TYPE":"U","NORAD_CAT_ID":44349,"ELEMENT_SET_NO":999,"REV_AT_EPOCH":36964,"BSTAR":0.00036541512,"MEAN_MOTION_DOT":4.503e-5,"MEAN_MOTION_DDOT":0},{"OBJECT_NAME":"STARLINK-5894","OBJECT_ID":"2023-037BD","EPOCH":"2026-03-09T22:29:02.552640","MEAN_MOTION":14.98326384,"ECCENTRICITY":0.00029519,"INCLINATION":69.9983,"RA_OF_ASC_NODE":263.6926,"ARG_OF_PERICENTER":268.7234,"MEAN_ANOMALY":91.3586,"EPHEMERIS_TYPE":0,"CLASSIFICATION_TYPE":"U","NORAD_CAT_ID":55965,"ELEMENT_SET_NO":999,"REV_AT_EPOCH":16451,"BSTAR":-7.9674271e-5,"MEAN_MOTION_DOT":-1.043e-5,"MEAN_MOTION_DDOT":0}]
